{"type": "FeatureCollection", "features": [ {"type": "Feature", "properties": {"norad_id": 34819, "name": "COSMOS 2251 DEB", "group": "cosmos-2251-debris", "lat": -4.141150604070961, "lon": 140.67426067824152, "alt_km": 689.0772835802072, "timestamp": "2025-12-13T03:42:11.667318+00:00", "meta": {"OBJECT_NAME": "COSMOS 2251 DEB", "OBJECT_ID": "1993-036ABJ", "EPOCH": "2025-12-12T03:39:15.255360", "MEAN_MOTION": 14.63952127, "ECCENTRICITY": 0.00156734, "INCLINATION": 74.0187, "RA_OF_ASC_NODE": 143.7886, "ARG_OF_PERICENTER": 237.8131, "MEAN_ANOMALY": 238.9847, "EPHEMERIS_TYPE": 0, "CLASSIFICATION_TYPE": "U", "NORAD_CAT_ID": 34819, "ELEMENT_SET_NO": 999, "REV_AT_EPOCH": 88220, "BSTAR": 0.002313028, "MEAN_MOTION_DOT": 0.00012122, "MEAN_MOTION_DDOT": 0}, "tle": {"line1": "1 34819U 93036ABJ 25346.15225990  .00012122  00000+0  23130-2 0  9997", "line2": "2 34819  74.0187 143.7886 0015673 237.8131 238.9847 14.63952127882209"}}, "geometry": {"type": "Point", "coordinates": [140.67426067824152, -4.141150604070961]}}, {"type": "Feature", "properties": {"norad_id": 34823, "name": "COSMOS 2251 DEB", "group": "cosmos-2251-debris", "lat": 27.414160714604662, "lon": 110.03247116843852, "alt_km": 809.2073695102872, "timestamp": "2025-12-13T03:42:11.667328+00:00", "meta": {"OBJECT_NAME": "COSMOS 2251 DEB", "OBJECT_ID": "1993-036ABN", "EPOCH": "2025-12-10T14:30:29.359008", "MEAN_MOTION": 14.54904355, "ECCENTRICITY": 0.0154887, "INCLINATION": 74.0414, "RA_OF_ASC_NODE": 106.322, "ARG_OF_PERICENTER": 191.6219, "MEAN_ANOMALY": 168.1356, "EPHEMERIS_TYPE": 0, "CLASSIFICATION_TYPE": "U", "NORAD_CAT_ID": 34823, "ELEMENT_SET_NO": 999, "REV_AT_EPOCH": 88350, "BSTAR": 0.0013618, "MEAN_MOTION_DOT": 6.85e-05, "MEAN_MOTION_DDOT": 0}, "tle": {"line1": "1 34823U 93036ABN 25344.60450647  .00006850  00000+0  13618-2 0  9990", "line2": "2 34823  74.0414 106.3220 0154887 191.6219 168.1356 14.54904355883502"}}, "geometry": {"type": "Point", "coordinates": [110.03247116843852, 27.414160714604662]}}, {"type": "Feature", "properties": {"norad_id": 34845, "name": "COSMOS 2251 DEB", "group": "cosmos-2251-debris", "lat": -15.279804034884457, "lon": 143.08908024813195, "alt_km": 730.7472606955935, "timestamp": "2025-12-13T03:42:11.667338+00:00", "meta": {"OBJECT_NAME": "COSMOS 2251 DEB", "OBJECT_ID": "1993-036ABP", "EPOCH": "2025-12-09T20:04:05.418048", "MEAN_MOTION": 14.45850049, "ECCENTRICITY": 0.00222586, "INCLINATION": 74.0237, "RA_OF_ASC_NODE": 153.7694, "ARG_OF_PERICENTER": 315.2139, "MEAN_ANOMALY": 44.7222, "EPHEMERIS_TYPE": 0, "CLASSIFICATION_TYPE": "U", "NORAD_CAT_ID": 34845, "ELEMENT_SET_NO": 999, "REV_AT_EPOCH": 87424, "BSTAR": 0.00046671234, "MEAN_MOTION_DOT": 1.636e-05, "MEAN_MOTION_DDOT": 0}, "tle": {"line1": "1 34845U 93036ABP 25343.83617382  .00001636  00000+0  46671-3 0  9992", "line2": "2 34845  74.0237 153.7694 0022258 315.2139  44.7222 14.45850049874243"}}, "geometry": {"type": "Point", "coordinates": [143.08908024813195, -15.279804034884457]}}, {"type": "Feature", "properties": {"norad_id": 34846, "name": "COSMOS 2251 DEB", "group": "cosmos-2251-debris", "lat": -68.19169846647544, "lon": -144.69489991066723, "alt_km": 727.8761940151262, "timestamp": "2025-12-13T03:42:11.667348+00:00", "meta": {"OBJECT_NAME": "COSMOS 2251 DEB", "OBJECT_ID": "1993-036ABQ", "EPOCH": "2025-12-12T04:49:15.669984", "MEAN_MOTION": 14.47210999, "ECCENTRICITY": 0.0026081, "INCLINATION": 74.0306, "RA_OF_ASC_NODE": 262.7827, "ARG_OF_PERICENTER": 329.2642, "MEAN_ANOMALY": 30.6988, "EPHEMERIS_TYPE": 0, "CLASSIFICATION_TYPE": "U", "NORAD_CAT_ID": 34846, "ELEMENT_SET_NO": 999, "REV_AT_EPOCH": 87396, "BSTAR": 0.0014230524, "MEAN_MOTION_DOT": 5.197e-05, "MEAN_MOTION_DDOT": 0}, "tle": {"line1": "1 34846U 93036ABQ 25346.20087581  .00005197  00000+0  14231-2 0  9991", "line2": "2 34846  74.0306 262.7827 0026081 329.2642  30.6988 14.47210999873969"}}, "geometry": {"type": "Point", "coordinates": [-144.69489991066723, -68.19169846647544]}}, {"type": "Feature", "properties": {"norad_id": 34852, "name": "COSMOS 2251 DEB", "group": "cosmos-2251-debris", "lat": -23.097472933405303, "lon": -104.8036538279335, "alt_km": 763.3946641558887, "timestamp": "2025-12-13T03:42:11.667359+00:00", "meta": {"OBJECT_NAME": "COSMOS 2251 DEB", "OBJECT_ID": "1993-036ABW", "EPOCH": "2025-12-12T04:25:24.036672", "MEAN_MOTION": 14.3700411, "ECCENTRICITY": 0.00161904, "INCLINATION": 74.033, "RA_OF_ASC_NODE": 263.9932, "ARG_OF_PERICENTER": 7.4098, "MEAN_ANOMALY": 352.7291, "EPHEMERIS_TYPE": 0, "CLASSIFICATION_TYPE": "U", "NORAD_CAT_ID": 34852, "ELEMENT_SET_NO": 999, "REV_AT_EPOCH": 87526, "BSTAR": 0.00018800574, "MEAN_MOTION_DOT": 5.32e-06, "MEAN_MOTION_DDOT": 0}, "tle": {"line1": "1 34852U 93036ABW 25346.18430598  .00000532  00000+0  18801-3 0  9991", "line2": "2 34852  74.0330 263.9932 0016190   7.4098 352.7291 14.37004110875268"}}, "geometry": {"type": "Point", "coordinates": [-104.8036538279335, -23.097472933405303]}}, {"type": "Feature", "properties": {"norad_id": 34854, "name": "COSMOS 2251 DEB", "group": "cosmos-2251-debris", "lat": -57.09858066427295, "lon": 131.49596497686747, "alt_km": 606.3777082469387, "timestamp": "2025-12-13T03:42:11.667370+00:00", "meta": {"OBJECT_NAME": "COSMOS 2251 DEB", "OBJECT_ID": "1993-036ABY", "EPOCH": "2025-12-12T05:12:45.104544", "MEAN_MOTION": 14.76618025, "ECCENTRICITY": 0.00661594, "INCLINATION": 74.0288, "RA_OF_ASC_NODE": 159.6067, "ARG_OF_PERICENTER": 271.3934, "MEAN_ANOMALY": 87.9662, "EPHEMERIS_TYPE": 0, "CLASSIFICATION_TYPE": "U", "NORAD_CAT_ID": 34854, "ELEMENT_SET_NO": 999, "REV_AT_EPOCH": 71874, "BSTAR": 0.0010879057, "MEAN_MOTION_DOT": 7.852e-05, "MEAN_MOTION_DDOT": 0}, "tle": {"line1": "1 34854U 93036ABY 25346.21718871  .00007852  00000+0  10879-2 0  9998", "line2": "2 34854  74.0288 159.6067 0066159 271.3934  87.9662 14.76618025718740"}}, "geometry": {"type": "Point", "coordinates": [131.49596497686747, -57.09858066427295]}}, {"type": "Feature", "properties": {"norad_id": 34856, "name": "COSMOS 2251 DEB", "group": "cosmos-2251-debris", "lat": 53.11165542178477, "lon": 106.48332151255624, "alt_km": 564.8048664643957, "timestamp": "2025-12-13T03:42:11.667384+00:00", "meta": {"OBJECT_NAME": "COSMOS 2251 DEB", "OBJECT_ID": "1993-036ACA", "EPOCH": "2025-12-11T13:15:05.666688", "MEAN_MOTION": 15.05962388, "ECCENTRICITY": 0.00329642, "INCLINATION": 73.9966, "RA_OF_ASC_NODE": 87.2929, "ARG_OF_PERICENTER": 225.0346, "MEAN_ANOMALY": 148.7122, "EPHEMERIS_TYPE": 0, "CLASSIFICATION_TYPE": "U", "NORAD_CAT_ID": 34856, "ELEMENT_SET_NO": 999, "REV_AT_EPOCH": 89094, "BSTAR": 0.0030960777, "MEAN_MOTION_DOT": 0.00045898, "MEAN_MOTION_DDOT": 0}, "tle": {"line1": "1 34856U 93036ACA 25345.55214892  .00045898  00000+0  30961-2 0  9996", "line2": "2 34856  73.9966  87.2929 0032964 225.0346 148.7122 15.05962388890943"}}, "geometry": {"type": "Point", "coordinates": [106.48332151255624, 53.11165542178477]}}, {"type": "Feature", "properties": {"norad_id": 34857, "name": "COSMOS 2251 DEB", "group": "cosmos-2251-debris", "lat": -3.387460089813854, "lon": 105.06847648813964, "alt_km": 727.2457077092968, "timestamp": "2025-12-13T03:42:11.667394+00:00", "meta": {"OBJECT_NAME": "COSMOS 2251 DEB", "OBJECT_ID": "1993-036ACB", "EPOCH": "2025-12-10T10:09:42.100416", "MEAN_MOTION": 14.5885085, "ECCENTRICITY": 0.00659222, "INCLINATION": 74.0153, "RA_OF_ASC_NODE": 111.2471, "ARG_OF_PERICENTER": 236.0948, "MEAN_ANOMALY": 183.224, "EPHEMERIS_TYPE": 0, "CLASSIFICATION_TYPE": "U", "NORAD_CAT_ID": 34857, "ELEMENT_SET_NO": 999, "REV_AT_EPOCH": 87867, "BSTAR": 0.001891387, "MEAN_MOTION_DOT": 9.104e-05, "MEAN_MOTION_DDOT": 0}, "tle": {"line1": "1 34857U 93036ACB 25344.42340394  .00009104  00000+0  18914-2 0  9993", "line2": "2 34857  74.0153 111.2471 0065922 236.0948 183.2240 14.58850850878672"}}, "geometry": {"type": "Point", "coordinates": [105.06847648813964, -3.387460089813854]}}, {"type": "Feature", "properties": {"norad_id": 34859, "name": "COSMOS 2251 DEB", "group": "cosmos-2251-debris", "lat": 29.9932112504789, "lon": -11.688108678732318, "alt_km": 518.8156511903262, "timestamp": "2025-12-13T03:42:11.667405+00:00", "meta": {"OBJECT_NAME": "COSMOS 2251 DEB", "OBJECT_ID": "1993-036ACD", "EPOCH": "2025-12-12T00:52:56.324928", "MEAN_MOTION": 15.14557844, "ECCENTRICITY": 0.0002471, "INCLINATION": 74.0312, "RA_OF_ASC_NODE": 341.1213, "ARG_OF_PERICENTER": 336.6743, "MEAN_ANOMALY": 83.5787, "EPHEMERIS_TYPE": 0, "CLASSIFICATION_TYPE": "U", "NORAD_CAT_ID": 34859, "ELEMENT_SET_NO": 999, "REV_AT_EPOCH": 88348, "BSTAR": 0.0060515, "MEAN_MOTION_DOT": 0.0011338, "MEAN_MOTION_DDOT": 0}, "tle": {"line1": "1 34859U 93036ACD 25346.03676302  .00113380  00000+0  60515-2 0  9991", "line2": "2 34859  74.0312 341.1213 0002471 336.6743  83.5787 15.14557844883482"}}, "geometry": {"type": "Point", "coordinates": [-11.688108678732318, 29.9932112504789]}}, {"type": "Feature", "properties": {"norad_id": 34861, "name": "COSMOS 2251 DEB", "group": "cosmos-2251-debris", "lat": -71.19228096304512, "lon": -7.293874936841645, "alt_km": 568.6918987565296, "timestamp": "2025-12-13T03:42:11.667415+00:00", "meta": {"OBJECT_NAME": "COSMOS 2251 DEB", "OBJECT_ID": "1993-036ACF", "EPOCH": "2025-12-12T05:56:14.374176", "MEAN_MOTION": 15.02536962, "ECCENTRICITY": 0.00070938, "INCLINATION": 74.0183, "RA_OF_ASC_NODE": 51.8567, "ARG_OF_PERICENTER": 49.0042, "MEAN_ANOMALY": 7.453, "EPHEMERIS_TYPE": 0, "CLASSIFICATION_TYPE": "U", "NORAD_CAT_ID": 34861, "ELEMENT_SET_NO": 999, "REV_AT_EPOCH": 88085, "BSTAR": 0.0035670942, "MEAN_MOTION_DOT": 0.00047736, "MEAN_MOTION_DDOT": 0}, "tle": {"line1": "1 34861U 93036ACF 25346.24738859  .00047736  00000+0  35671-2 0  9999", "line2": "2 34861  74.0183  51.8567 0007093  49.0042   7.4530 15.02536962880854"}}, "geometry": {"type": "Point", "coordinates": [-7.293874936841645, -71.19228096304512]}}]}